{
  "type": "FeatureCollection",
  "features": [
    {
      "type": "Feature",
      "properties": {
        "norad_id": 33924,
        "name": "COSMOS 2251 DEB",
        "group": "cosmos-2251-debris",
        "lat": -22.185608452796867,
        "lon": -95.03191559973143,
        "alt_km": 811.7930345597588,
        "timestamp": "2025-12-11T18:59:46.468279+00:00",
        "meta_object_name": "COSMOS 2251 DEB",
        "meta_object_id": "1993-036ED",
        "meta_epoch": "2025-12-11T04:52:43.820544",
        "meta_mean_motion": 13.50220792,
        "meta_eccentricity": 0.04040535,
        "meta_inclination": 73.9135,
        "meta_ra_of_asc_node": 272.6709,
        "meta_arg_of_pericenter": 308.3923,
        "meta_mean_anomaly": 48.1527,
        "meta_ephemeris_type": 0,
        "meta_classification_type": "U",
        "meta_norad_cat_id": 33924,
        "meta_element_set_no": 999,
        "meta_rev_at_epoch": 82718,
        "meta_bstar": 0.0013562872,
        "meta_mean_motion_dot": 1.415e-05,
        "meta_mean_motion_ddot": 0,
        "tle_line1": "1 33924U 93036ED  25345.20328496  .00001415  00000+0  13563-2 0  9995",
        "tle_line2": "2 33924  73.9135 272.6709 0404053 308.3923  48.1527 13.50220792827182"
      },
      "geometry": {
        "type": "Point",
        "coordinates": [
          -95.03191559973143,
          -22.185608452796867
        ]
      }
    },
    {
      "type": "Feature",
      "properties": {
        "norad_id": 33928,
        "name": "COSMOS 2251 DEB",
        "group": "cosmos-2251-debris",
        "lat": -72.86158170527983,
        "lon": -14.877243440633602,
        "alt_km": 727.8277767453465,
        "timestamp": "2025-12-11T18:59:46.468290+00:00",
        "meta_object_name": "COSMOS 2251 DEB",
        "meta_object_id": "1993-036EH",
        "meta_epoch": "2025-12-11T06:06:34.600032",
        "meta_mean_motion": 14.47401036,
        "meta_eccentricity": 0.00613836,
        "meta_inclination": 73.9261,
        "meta_ra_of_asc_node": 55.3614,
        "meta_arg_of_pericenter": 349.7902,
        "meta_mean_anomaly": 10.2004,
        "meta_ephemeris_type": 0,
        "meta_classification_type": "U",
        "meta_norad_cat_id": 33928,
        "meta_element_set_no": 999,
        "meta_rev_at_epoch": 88623,
        "meta_bstar": 0.00040294153,
        "meta_mean_motion_dot": 1.484e-05,
        "meta_mean_motion_ddot": 0,
        "tle_line1": "1 33928U 93036EH  25345.25456713  .00001484  00000+0  40294-3 0  9996",
        "tle_line2": "2 33928  73.9261  55.3614 0061383 349.7902  10.2004 14.47401036886238"
      },
      "geometry": {
        "type": "Point",
        "coordinates": [
          -14.877243440633602,
          -72.86158170527983
        ]
      }
    },
    {
      "type": "Feature",
      "properties": {
        "norad_id": 33932,
        "name": "COSMOS 2251 DEB",
        "group": "cosmos-2251-debris",
        "lat": 72.93106981525312,
        "lon": 26.472210298693707,
        "alt_km": 738.9746833013287,
        "timestamp": "2025-12-11T18:59:46.468301+00:00",
        "meta_object_name": "COSMOS 2251 DEB",
        "meta_object_id": "1993-036EM",
        "meta_epoch": "2025-12-11T06:55:43.616064",
        "meta_mean_motion": 14.38752083,
        "meta_eccentricity": 0.00352141,
        "meta_inclination": 74.0346,
        "meta_ra_of_asc_node": 318.5937,
        "meta_arg_of_pericenter": 35.1868,
        "meta_mean_anomaly": 325.1602,
        "meta_ephemeris_type": 0,
        "meta_classification_type": "U",
        "meta_norad_cat_id": 33932,
        "meta_element_set_no": 999,
        "meta_rev_at_epoch": 87977,
        "meta_bstar": 0.00087238661,
        "meta_mean_motion_dot": 2.673e-05,
        "meta_mean_motion_ddot": 0,
        "tle_line1": "1 33932U 93036EM  25345.28869926  .00002673  00000+0  87239-3 0  9999",
        "tle_line2": "2 33932  74.0346 318.5937 0035214  35.1868 325.1602 14.38752083879776"
      },
      "geometry": {
        "type": "Point",
        "coordinates": [
          26.472210298693707,
          72.93106981525312
        ]
      }
    },
    {
      "type": "Feature",
      "properties": {
        "norad_id": 33933,
        "name": "COSMOS 2251 DEB",
        "group": "cosmos-2251-debris",
        "lat": -48.149785961506495,
        "lon": 43.29533037157856,
        "alt_km": 812.6192831580693,
        "timestamp": "2025-12-11T18:59:46.468311+00:00",
        "meta_object_name": "COSMOS 2251 DEB",
        "meta_object_id": "1993-036EN",
        "meta_epoch": "2025-12-11T07:30:30.796416",
        "meta_mean_motion": 14.33485905,
        "meta_eccentricity": 0.00707884,
        "meta_inclination": 74.0895,
        "meta_ra_of_asc_node": 62.7372,
        "meta_arg_of_pericenter": 71.5687,
        "meta_mean_anomaly": 289.3144,
        "meta_ephemeris_type": 0,
        "meta_classification_type": "U",
        "meta_norad_cat_id": 33933,
        "meta_element_set_no": 999,
        "meta_rev_at_epoch": 87764,
        "meta_bstar": 0.00045939265,
        "meta_mean_motion_dot": 1.281e-05,
        "meta_mean_motion_ddot": 0,
        "tle_line1": "1 33933U 93036EN  25345.31285644  .00001281  00000+0  45939-3 0  9998",
        "tle_line2": "2 33933  74.0895  62.7372 0070788  71.5687 289.3144 14.33485905877642"
      },
      "geometry": {
        "type": "Point",
        "coordinates": [
          43.29533037157856,
          -48.149785961506495
        ]
      }
    },
    {
      "type": "Feature",
      "properties": {
        "norad_id": 33934,
        "name": "COSMOS 2251 DEB",
        "group": "cosmos-2251-debris",
        "lat": -19.943154670197178,
        "lon": 96.41845795952268,
        "alt_km": 705.331004581587,
        "timestamp": "2025-12-11T18:59:46.468322+00:00",
        "meta_object_name": "COSMOS 2251 DEB",
        "meta_object_id": "1993-036EP",
        "meta_epoch": "2025-12-10T16:45:45.897696",
        "meta_mean_motion": 14.59079033,
        "meta_eccentricity": 0.00157357,
        "meta_inclination": 74.0382,
        "meta_ra_of_asc_node": 104.461,
        "meta_arg_of_pericenter": 228.2829,
        "meta_mean_anomaly": 131.6991,
        "meta_ephemeris_type": 0,
        "meta_classification_type": "U",
        "meta_norad_cat_id": 33934,
        "meta_element_set_no": 999,
        "meta_rev_at_epoch": 88709,
        "meta_bstar": 0.0016487916,
        "meta_mean_motion_dot": 7.748e-05,
        "meta_mean_motion_ddot": 0,
        "tle_line1": "1 33934U 93036EP  25344.69844789  .00007748  00000+0  16488-2 0  9990",
        "tle_line2": "2 33934  74.0382 104.4610 0015735 228.2829 131.6991 14.59079033887091"
      },
      "geometry": {
        "type": "Point",
        "coordinates": [
          96.41845795952268,
          -19.943154670197178
        ]
      }
    },
    {
      "type": "Feature",
      "properties": {
        "norad_id": 33936,
        "name": "COSMOS 2251 DEB",
        "group": "cosmos-2251-debris",
        "lat": -72.77490892368944,
        "lon": -73.13194197025912,
        "alt_km": 692.089535601528,
        "timestamp": "2025-12-11T18:59:46.468332+00:00",
        "meta_object_name": "COSMOS 2251 DEB",
        "meta_object_id": "1993-036ER",
        "meta_epoch": "2025-12-11T06:17:05.056512",
        "meta_mean_motion": 14.60258296,
        "meta_eccentricity": 0.00276414,
        "meta_inclination": 74.0188,
        "meta_ra_of_asc_node": 40.3083,
        "meta_arg_of_pericenter": 196.045,
        "meta_mean_anomaly": 163.9843,
        "meta_ephemeris_type": 0,
        "meta_classification_type": "U",
        "meta_norad_cat_id": 33936,
        "meta_element_set_no": 999,
        "meta_rev_at_epoch": 88868,
        "meta_bstar": 0.0012767765,
        "meta_mean_motion_dot": 6.17e-05,
        "meta_mean_motion_ddot": 0,
        "tle_line1": "1 33936U 93036ER  25345.26186408  .00006170  00000+0  12768-2 0  9998",
        "tle_line2": "2 33936  74.0188  40.3083 0027641 196.0450 163.9843 14.60258296888682"
      },
      "geometry": {
        "type": "Point",
        "coordinates": [
          -73.13194197025912,
          -72.77490892368944
        ]
      }
    },
    {
      "type": "Feature",
      "properties": {
        "norad_id": 33938,
        "name": "COSMOS 2251 DEB",
        "group": "cosmos-2251-debris",
        "lat": 16.56192550653459,
        "lon": 24.066671853351174,
        "alt_km": 743.8455413537549,
        "timestamp": "2025-12-11T18:59:46.468344+00:00",
        "meta_object_name": "COSMOS 2251 DEB",
        "meta_object_id": "1993-036ET",
        "meta_epoch": "2025-12-11T02:21:34.477344",
        "meta_mean_motion": 14.4678514,
        "meta_eccentricity": 0.00168772,
        "meta_inclination": 74.045,
        "meta_ra_of_asc_node": 210.2409,
        "meta_arg_of_pericenter": 292.5119,
        "meta_mean_anomaly": 221.2976,
        "meta_ephemeris_type": 0,
        "meta_classification_type": "U",
        "meta_norad_cat_id": 33938,
        "meta_element_set_no": 999,
        "meta_rev_at_epoch": 88376,
        "meta_bstar": 0.00062019548,
        "meta_mean_motion_dot": 2.223e-05,
        "meta_mean_motion_ddot": 0,
        "tle_line1": "1 33938U 93036ET  25345.09831571  .00002223  00000+0  62020-3 0  9991",
        "tle_line2": "2 33938  74.0450 210.2409 0016877 292.5119 221.2976 14.46785140883765"
      },
      "geometry": {
        "type": "Point",
        "coordinates": [
          24.066671853351174,
          16.56192550653459
        ]
      }
    }
  ]
}